ISS (ZARYA)             
1 25544U 98067A   26195.86320345  .00002555  00000+0  54527-4 0  9997
2 25544  51.6306 163.1262 0006677 297.0398  62.9909 15.49008846576040
OSCAR 7 (AO-7)          
1 07530U 74089B   26195.60626992 -.00000032  00000+0  86767-4 0  9999
2 07530 101.9905 209.1386 0012661  79.4493  40.0300 12.53698560363951
PHASE 3B (AO-10)        
1 14129U 83058B   26194.10401075 -.00000187  00000+0  00000+0 0  9996
2 14129  25.9345 215.2934 6002223 122.7887 309.2966  2.05872336296023
UOSAT 2 (UO-11)         
1 14781U 84021B   26195.80716264  .00000589  00000+0  65424-4 0  9999
2 14781  97.8076 161.0771 0009213  92.5056 267.7217 14.90848396261244
LUSAT (LO-19)           
1 20442U 90005G   26195.60099740  .00000042  00000+0  31820-4 0  9997
2 20442  98.8847 218.1611 0012525 122.9909 237.2480 14.34130652906320
EYESAT A (AO-27)        
1 22825U 93061C   26195.75956436  .00000038  00000+0  31561-4 0  9996
2 22825  98.6869 263.1613 0008786  27.0664 333.0976 14.30948990710942
ITAMSAT (IO-26)         
1 22826U 93061D   26195.73074634  .00000040  00000+0  32026-4 0  9996
2 22826  98.6815 263.0527 0008995  10.7506 349.3868 14.31376581711250
RADIO ROSTO (RS15)      
1 23439U 94085A   26195.52090915 -.00000036  00000+0  18080-3 0  9990
2 23439  64.8152 259.0113 0156894 358.8329   1.2209 11.27583545298982
JAS-2 (FO-29)           
1 24278U 96046B   26195.81415396  .00000011  00000+0  45827-4 0  9999
2 24278  98.5220  40.8992 0350380  24.9279 336.8338 13.53275637476907
TECHSAT 1B (GO-32)      
1 25397U 98043D   26195.52935320  .00000006  00000+0  22945-4 0  9993
2 25397  99.0085 188.9795 0002171 115.5342 244.6061 14.24433285455225
PCSAT (NO-44)           
1 26931U 01043C   26195.32908449  .00000011  00000+0  34933-4 0  9998
2 26931  67.0494 174.0696 0005927 266.5603  93.4821 14.31964812294334
SAUDISAT 1C (SO-50)     
1 27607U 02058C   26195.80203815  .00000375  00000+0  62311-4 0  9998
2 27607  64.5518  43.5419 0074548 257.3375 101.9390 14.83097966268551
CUTE-1 (CO-55)          
1 27844U 03031E   26195.57423980  .00000140  00000+0  79585-4 0  9995
2 27844  98.6742 203.7891 0010828 104.2879 255.9503 14.24351310195573
CUBESAT XI-IV (CO-57)   
1 27848U 03031J   26195.57646244  .00000117  00000+0  70501-4 0  9992
2 27848  98.6774 203.4819 0010527 121.1058 239.1154 14.23634354195276
MOZHAETS 4 (RS22)       
1 27939U 03042A   26195.85964874  .00000902  00000+0  14705-3 0  9993
2 27939  98.3468  21.0019 0011197 174.2713 297.4722 14.73515703219626
CUBESAT XI-V            
1 28895U 05043F   26195.37665838  .00000686  00000+0  11575-3 0  9994
2 28895  98.3013 351.5747 0015230 117.6296 242.6459 14.72701135105754
CUTE-1.7+APD II (CO-65) 
1 32785U 08021C   26195.82332272  .00002941  00000+0  18661-3 0  9998
2 32785  97.8291 177.8241 0007039 300.9079  59.1457 15.09699061989362
SEEDS II (CO-66)        
1 32791U 08021J   26195.54652954  .00010410  00000+0  32244-3 0  9999
2 32791  97.7520 194.7703 0002981 157.5049 202.6324 15.33652134991489
YUBILEINY (RS30)        
1 32953U 08025A   26195.86339832 -.00000033  00000+0 -30503-3 0  9993
2 32953  82.5056 338.2226 0018594 249.7516 110.1565 12.43180542823133
KKS-1 (KISEKI)          
1 33499U 09002H   26195.84964880  .00000621  00000+0  82917-4 0  9998
2 33499  98.1174 118.7302 0007400 190.1737 169.9327 14.83188731940296
SWISSCUBE               
1 35932U 09051B   26195.74040392  .00000468  00000+0  10206-3 0  9998
2 35932  98.4008 104.1063 0007823 120.2894 239.9082 14.62530263893188
BEESAT-1                
1 35933U 09051C   26195.69579757  .00000389  00000+0  87927-4 0  9992
2 35933  98.3936 103.6385 0006093 131.1262 229.0465 14.61761410893204
ITUPSAT1                
1 35935U 09051E   26195.71080867  .00000360  00000+0  84350-4 0  9992
2 35935  98.4019 102.8162 0008055 144.4895 215.6843 14.60478385892757
XIWANG-1 (HOPE-1)       
1 36122U 09072B   26195.83155965  .00000260  00000+0  79649-3 0  9992
2 36122 100.4033 149.2239 0007550 165.4885 194.6446 13.16441439796643
O/OREOS (USA 219)       
1 37224U 10062C   26195.65266082  .00001047  00000+0  10439-3 0  9996
2 37224  71.9697  18.1178 0013944   6.1523 353.9816 14.93850312120748
JUGNU                   
1 37839U 11058B   26195.20044442  .00000341  00000+0  38942-4 0  9995
2 37839  19.9593 144.3072 0018538  15.5090 113.9676 14.13783328762855
SRMSAT                  
1 37841U 11058D   26195.29196898  .00000343  00000+0  42066-4 0  9994
2 37841  19.9711 255.4136 0011787 141.3057 265.6885 14.11580990761657
STRAND-1                
1 39090U 13009E   26195.48684837  .00000131  00000+0  58407-4 0  9997
2 39090  98.3933  15.0510 0009374 143.0599 217.1235 14.37178635700984
ZACUBE-1 (TSHEPISOSAT)  
1 39417U 13066B   26195.86804456  .00001239  00000+0  99204-4 0  9996
2 39417  97.8008 158.3415 0044011 156.2520 204.0748 15.01327872684881
GOMX-1                  
1 39430U 13066Q   26195.83077860  .00000789  00000+0  12511-3 0  9993
2 39430  97.6469  34.5491 0128297 349.3818  10.4684 14.69542594673977
